RISAT-2BR2              
1 46905U 20081A   26068.52426450  .00004901  00000+0  37609-3 0  9996
2 46905  36.8980  95.9121 0010905  52.9142 307.2595 15.01602463292489
STARLINK-35172          
1 65533U 25200P   26068.72957703 -.00004559  00000+0 -31198-3 0  9992
2 65533  97.6023 139.7864 0002607  63.6851 296.4643 15.05641967 29136
